GLOBALSTAR M084         
1 38040U 11080A   24302.21062372 -.00000082  00000+0  12331-3 0  9992
2 38040  52.0034  34.6935 0000345 135.2937 240.2377 12.62269149593658
GLOBALSTAR M080         
1 38041U 11080B   24301.98122174 -.00000092  00000+0  66053-4 0  9995
2 38041  52.0082  36.9175 0000591 157.8798  14.2883 12.62267228593467
GLOBALSTAR M082         
1 38042U 11080C   24302.20298182 -.00000047  00000+0  31732-3 0  9990
2 38042  52.0100 351.6664 0000793  69.2221 331.3593 12.62268538594377
GLOBALSTAR M092         
1 38043U 11080D   24301.88736972 -.00000076  00000+0  15227-3 0  9991
2 38043  52.0079  82.9873 0000699  97.6852  68.1467 12.62268380592827
GLOBALSTAR M090         
1 38044U 11080E   24301.86215891 -.00000057  00000+0  25988-3 0  9996
2 38044  51.9908 346.8112 0000605  82.4069  88.9849 12.62269459594277
GLOBALSTAR M086         
1 38045U 11080F   24301.88857368 -.00000066  00000+0  21072-3 0  9990
2 38045  51.9921 347.2633 0001120 147.1606  24.9063 12.62268931594323
GLOBALSTAR M097         
1 39072U 13005A   24302.19422339 -.00000091  00000+0  70765-4 0  9993
2 39072  52.0042 260.6446 0000749  80.5334 279.5617 12.62272343541590
GLOBALSTAR M093         
1 39073U 13005B   24302.16748116 -.00000079  00000+0  13829-3 0  9998
2 39073  51.9806 254.3979 0000865  74.1693 285.9268 12.62266330541585
